{
	"id": "1605307231874",
	"start": 1605307573875,
	"end": 1605307575875,
	"sampleRate": 48000,
	"inputSampleRate": 240000,
	"frequency": 437250000,
	"actualFrequency": 437269951,
	"decoder": "TELEMETRY",
	"satellite": "39430",
	"bandwidth": 15000,
	"tle": {
		"line1": "GOMX-1",
		"line2": "1 39430U 13066Q   20317.89732184  .00000335  00000-0  68936-4 0  9997",
		"line3": "2 39430  97.8003 247.5229 0152160  76.9906 284.8258 14.59464645371456"
	},
	"groundStation": {
		"lat": 56.315,
		"lon": 38.135
	},
	"gain": "25.0",
	"numberOfDecodedPackets": 25,
	"data": "/api/v1/admin/static/satellites/39430/data/1605307231874/data.bin",
	"rawURL": "/api/v1/admin/static/satellites/39430/data/1605307231874/output.raw.gz",
	"status": "UPLOADED",
	"biast": false,
	"sdrType": "RTLSDR",
	"baudRates": [
		4800
	]
}
